{
  "type": "FeatureCollection",
  "features": [
    {
      "type": "Feature",
      "properties": {
        "norad_id": 46277,
        "name": "NEMO-HD",
        "group": "resource",
        "lat": 41.86801448273207,
        "lon": 46.71608752000249,
        "alt_km": 440.460546286532,
        "timestamp": "2025-12-20T05:41:49.676029+00:00",
        "meta_object_name": "NEMO-HD",
        "meta_object_id": "2020-061F",
        "meta_epoch": "2025-12-19T23:16:41.920896",
        "meta_mean_motion": 15.40467765,
        "meta_eccentricity": 0.00014086,
        "meta_inclination": 97.2204,
        "meta_ra_of_asc_node": 52.9764,
        "meta_arg_of_pericenter": 51.9577,
        "meta_mean_anomaly": 308.1797,
        "meta_ephemeris_type": 0,
        "meta_classification_type": "U",
        "meta_norad_cat_id": 46277,
        "meta_element_set_no": 999,
        "meta_rev_at_epoch": 29435,
        "meta_bstar": 0.00018536891,
        "meta_mean_motion_dot": 7.427e-05,
        "meta_mean_motion_ddot": 0,
        "tle_line1": "1 46277U 20061F   25353.96992964  .00007427  00000+0  18537-3 0  9993",
        "tle_line2": "2 46277  97.2204  52.9764 0001408  51.9577 308.1797 15.40467765294355"
      },
      "geometry": {
        "type": "Point",
        "coordinates": [
          46.71608752000249,
          41.86801448273207
        ]
      }
    },
    {
      "type": "Feature",
      "properties": {
        "norad_id": 46984,
        "name": "SENTINEL-6A",
        "group": "resource",
        "lat": 59.16420523122538,
        "lon": -81.41144226591163,
        "alt_km": 1336.6796038554749,
        "timestamp": "2025-12-20T05:41:49.676039+00:00",
        "meta_object_name": "SENTINEL-6A",
        "meta_object_id": "2020-086A",
        "meta_epoch": "2025-12-19T19:45:19.960416",
        "meta_mean_motion": 12.80930846,
        "meta_eccentricity": 0.0007715,
        "meta_inclination": 66.0393,
        "meta_ra_of_asc_node": 147.5954,
        "meta_arg_of_pericenter": 269.316,
        "meta_mean_anomaly": 90.6971,
        "meta_ephemeris_type": 0,
        "meta_classification_type": "U",
        "meta_norad_cat_id": 46984,
        "meta_element_set_no": 999,
        "meta_rev_at_epoch": 23735,
        "meta_bstar": -1.8192625e-05,
        "meta_mean_motion_dot": -6.5e-07,
        "meta_mean_motion_ddot": 0,
        "tle_line1": "1 46984U 20086A   25353.82314769 -.00000065  00000+0 -18193-4 0  9993",
        "tle_line2": "2 46984  66.0393 147.5954 0007715 269.3160  90.6971 12.80930846237355"
      },
      "geometry": {
        "type": "Point",
        "coordinates": [
          -81.41144226591163,
          59.16420523122538
        ]
      }
    },
    {
      "type": "Feature",
      "properties": {
        "norad_id": 48079,
        "name": "GAOFEN-12 02",
        "group": "resource",
        "lat": -25.185561169721336,
        "lon": -8.00739470678587,
        "alt_km": 633.7123034323395,
        "timestamp": "2025-12-20T05:41:49.676049+00:00",
        "meta_object_name": "GAOFEN-12 02",
        "meta_object_id": "2021-026A",
        "meta_epoch": "2025-12-19T23:19:27.818400",
        "meta_mean_motion": 14.80683133,
        "meta_eccentricity": 0.0003595,
        "meta_inclination": 97.9853,
        "meta_ra_of_asc_node": 347.9434,
        "meta_arg_of_pericenter": 86.6807,
        "meta_mean_anomaly": 273.4816,
        "meta_ephemeris_type": 0,
        "meta_classification_type": "U",
        "meta_norad_cat_id": 48079,
        "meta_element_set_no": 999,
        "meta_rev_at_epoch": 25524,
        "meta_bstar": 5.1923957e-05,
        "meta_mean_motion_dot": 3.46e-06,
        "meta_mean_motion_ddot": 0,
        "tle_line1": "1 48079U 21026A   25353.97184975  .00000346  00000+0  51924-4 0  9994",
        "tle_line2": "2 48079  97.9853 347.9434 0003595  86.6807 273.4816 14.80683133255248"
      },
      "geometry": {
        "type": "Point",
        "coordinates": [
          -8.00739470678587,
          -25.185561169721336
        ]
      }
    },
    {
      "type": "Feature",
      "properties": {
        "norad_id": 48268,
        "name": "PLEIADES NEO 3",
        "group": "resource",
        "lat": 66.99774103700663,
        "lon": 47.49150371467472,
        "alt_km": 616.6463675125133,
        "timestamp": "2025-12-20T05:41:49.676059+00:00",
        "meta_object_name": "PLEIADES NEO 3",
        "meta_object_id": "2021-034A",
        "meta_epoch": "2025-12-19T22:54:24.463584",
        "meta_mean_motion": 14.81671205,
        "meta_eccentricity": 0.00013434,
        "meta_inclination": 97.8951,
        "meta_ra_of_asc_node": 66.2922,
        "meta_arg_of_pericenter": 89.2303,
        "meta_mean_anomaly": 270.9064,
        "meta_ephemeris_type": 0,
        "meta_classification_type": "U",
        "meta_norad_cat_id": 48268,
        "meta_element_set_no": 999,
        "meta_rev_at_epoch": 25111,
        "meta_bstar": 1.0043155e-05,
        "meta_mean_motion_dot": 2.7e-07,
        "meta_mean_motion_ddot": 0,
        "tle_line1": "1 48268U 21034A   25353.95444981  .00000027  00000+0  10043-4 0  9990",
        "tle_line2": "2 48268  97.8951  66.2922 0001343  89.2303 270.9064 14.81671205251115"
      },
      "geometry": {
        "type": "Point",
        "coordinates": [
          47.49150371467472,
          66.99774103700663
        ]
      }
    },
    {
      "type": "Feature",
      "properties": {
        "norad_id": 49070,
        "name": "PLEIADES NEO 4",
        "group": "resource",
        "lat": -67.15821867911787,
        "lon": -132.66761507310773,
        "alt_km": 632.1655109923558,
        "timestamp": "2025-12-20T05:41:49.676070+00:00",
        "meta_object_name": "PLEIADES NEO 4",
        "meta_object_id": "2021-073E",
        "meta_epoch": "2025-12-19T22:05:45.923424",
        "meta_mean_motion": 14.81672667,
        "meta_eccentricity": 0.00013263,
        "meta_inclination": 97.8951,
        "meta_ra_of_asc_node": 66.2552,
        "meta_arg_of_pericenter": 91.5468,
        "meta_mean_anomaly": 268.5897,
        "meta_ephemeris_type": 0,
        "meta_classification_type": "U",
        "meta_norad_cat_id": 49070,
        "meta_element_set_no": 999,
        "meta_rev_at_epoch": 23482,
        "meta_bstar": -2.9758035e-05,
        "meta_mean_motion_dot": -2.86e-06,
        "meta_mean_motion_ddot": 0,
        "tle_line1": "1 49070U 21073E   25353.92067041 -.00000286  00000+0 -29758-4 0  9992",
        "tle_line2": "2 49070  97.8951  66.2552 0001326  91.5468 268.5897 14.81672667234824"
      },
      "geometry": {
        "type": "Point",
        "coordinates": [
          -132.66761507310773,
          -67.15821867911787
        ]
      }
    },
    {
      "type": "Feature",
      "properties": {
        "norad_id": 49260,
        "name": "LANDSAT 9",
        "group": "resource",
        "lat": -36.621810236708335,
        "lon": 68.39855059768307,
        "alt_km": 709.3441297839217,
        "timestamp": "2025-12-20T05:41:49.676080+00:00",
        "meta_object_name": "LANDSAT 9",
        "meta_object_id": "2021-088A",
        "meta_epoch": "2025-12-19T15:02:03.183936",
        "meta_mean_motion": 14.57104632,
        "meta_eccentricity": 0.0001115,
        "meta_inclination": 98.2087,
        "meta_ra_of_asc_node": 61.6374,
        "meta_arg_of_pericenter": 91.1885,
        "meta_mean_anomaly": 268.9441,
        "meta_ephemeris_type": 0,
        "meta_classification_type": "U",
        "meta_norad_cat_id": 49260,
        "meta_element_set_no": 999,
        "meta_rev_at_epoch": 22485,
        "meta_bstar": 8.05e-05,
        "meta_mean_motion_dot": 3.17e-06,
        "meta_mean_motion_ddot": 0,
        "tle_line1": "1 49260U 21088A   25353.62642574  .00000317  00000+0  80500-4 0  9991",
        "tle_line2": "2 49260  98.2087  61.6374 0001115  91.1885 268.9441 14.57104632224852"
      },
      "geometry": {
        "type": "Point",
        "coordinates": [
          68.39855059768307,
          -36.621810236708335
        ]
      }
    },
    {
      "type": "Feature",
      "properties": {
        "norad_id": 51444,
        "name": "CSG-2",
        "group": "resource",
        "lat": -64.84591696829787,
        "lon": -167.3999852161928,
        "alt_km": 630.6432570789148,
        "timestamp": "2025-12-20T05:41:49.676091+00:00",
        "meta_object_name": "CSG-2",
        "meta_object_id": "2022-008A",
        "meta_epoch": "2025-12-19T23:30:49.141152",
        "meta_mean_motion": 14.82149852,
        "meta_eccentricity": 0.00014513,
        "meta_inclination": 97.8797,
        "meta_ra_of_asc_node": 175.1932,
        "meta_arg_of_pericenter": 83.7983,
        "meta_mean_anomaly": 276.3395,
        "meta_ephemeris_type": 0,
        "meta_classification_type": "U",
        "meta_norad_cat_id": 51444,
        "meta_element_set_no": 999,
        "meta_rev_at_epoch": 21004,
        "meta_bstar": 2.1850702e-05,
        "meta_mean_motion_dot": 1.22e-06,
        "meta_mean_motion_ddot": 0,
        "tle_line1": "1 51444U 22008A   25353.97973543  .00000122  00000+0  21851-4 0  9990",
        "tle_line2": "2 51444  97.8797 175.1932 0001451  83.7983 276.3395 14.82149852210040"
      },
      "geometry": {
        "type": "Point",
        "coordinates": [
          -167.3999852161928,
          -64.84591696829787
        ]
      }
    }
  ]
}